{"type": "FeatureCollection", "features": [ {"type": "Feature", "properties": {"norad_id": 34376, "name": "IRIDIUM 33 DEB", "group": "iridium-33-debris", "lat": 60.69925728219832, "lon": 7.433493042379806, "alt_km": 669.6463688518288, "timestamp": "2025-12-25T11:37:44.824205+00:00", "meta": {"OBJECT_NAME": "IRIDIUM 33 DEB", "OBJECT_ID": "1997-051FU", "EPOCH": "2025-12-24T17:17:28.891392", "MEAN_MOTION": 14.62726881, "ECCENTRICITY": 0.00284367, "INCLINATION": 86.2983, "RA_OF_ASC_NODE": 1.1525, "ARG_OF_PERICENTER": 127.427, "MEAN_ANOMALY": 232.9536, "EPHEMERIS_TYPE": 0, "CLASSIFICATION_TYPE": "U", "NORAD_CAT_ID": 34376, "ELEMENT_SET_NO": 999, "REV_AT_EPOCH": 88182, "BSTAR": 0.001533236, "MEAN_MOTION_DOT": 7.879e-05, "MEAN_MOTION_DDOT": 0}, "tle": {"line1": "1 34376U 97051FU  25358.72047328  .00007879  00000+0  15332-2 0  9997", "line2": "2 34376  86.2983   1.1525 0028436 127.4270 232.9536 14.62726881881823"}}, "geometry": {"type": "Point", "coordinates": [7.433493042379806, 60.69925728219832]}}, {"type": "Feature", "properties": {"norad_id": 34486, "name": "IRIDIUM 33 DEB", "group": "iridium-33-debris", "lat": 8.784908193894946, "lon": 6.69743296567572, "alt_km": 576.1865330643241, "timestamp": "2025-12-25T11:37:44.824215+00:00", "meta": {"OBJECT_NAME": "IRIDIUM 33 DEB", "OBJECT_ID": "1997-051GB", "EPOCH": "2025-12-25T00:37:54.079104", "MEAN_MOTION": 14.96343831, "ECCENTRICITY": 0.0013926, "INCLINATION": 86.3927, "RA_OF_ASC_NODE": 6.3505, "ARG_OF_PERICENTER": 77.1371, "MEAN_ANOMALY": 345.1721, "EPHEMERIS_TYPE": 0, "CLASSIFICATION_TYPE": "U", "NORAD_CAT_ID": 34486, "ELEMENT_SET_NO": 999, "REV_AT_EPOCH": 89170, "BSTAR": 0.0022974, "MEAN_MOTION_DOT": 0.00026127, "MEAN_MOTION_DDOT": 0}, "tle": {"line1": "1 34486U 97051GB  25359.02632036  .00026127  00000+0  22974-2 0  9996", "line2": "2 34486  86.3927   6.3505 0013926  77.1371 345.1721 14.96343831891708"}}, "geometry": {"type": "Point", "coordinates": [6.69743296567572, 8.784908193894946]}}, {"type": "Feature", "properties": {"norad_id": 34487, "name": "IRIDIUM 33 DEB", "group": "iridium-33-debris", "lat": 56.43265505764509, "lon": -178.64133363426723, "alt_km": 722.9977344796098, "timestamp": "2025-12-25T11:37:44.824226+00:00", "meta": {"OBJECT_NAME": "IRIDIUM 33 DEB", "OBJECT_ID": "1997-051GC", "EPOCH": "2025-12-25T01:19:57.963072", "MEAN_MOTION": 14.43231551, "ECCENTRICITY": 0.0033262, "INCLINATION": 86.3429, "RA_OF_ASC_NODE": 7.0742, "ARG_OF_PERICENTER": 90.1032, "MEAN_ANOMALY": 325.4273, "EPHEMERIS_TYPE": 0, "CLASSIFICATION_TYPE": "U", "NORAD_CAT_ID": 34487, "ELEMENT_SET_NO": 999, "REV_AT_EPOCH": 88426, "BSTAR": 0.00018854, "MEAN_MOTION_DOT": 6.59e-06, "MEAN_MOTION_DDOT": 0}, "tle": {"line1": "1 34487U 97051GC  25359.05553198  .00000659  00000+0  18854-3 0  9996", "line2": "2 34487  86.3429   7.0742 0033262  90.1032 325.4273 14.43231551884264"}}, "geometry": {"type": "Point", "coordinates": [-178.64133363426723, 56.43265505764509]}}, {"type": "Feature", "properties": {"norad_id": 34488, "name": "IRIDIUM 33 DEB", "group": "iridium-33-debris", "lat": 28.192566142413597, "lon": 117.512181251678, "alt_km": 470.15022922996104, "timestamp": "2025-12-25T11:37:44.824236+00:00", "meta": {"OBJECT_NAME": "IRIDIUM 33 DEB", "OBJECT_ID": "1997-051GD", "EPOCH": "2025-12-24T20:52:00.225120", "MEAN_MOTION": 15.32501741, "ECCENTRICITY": 0.0009278, "INCLINATION": 86.3252, "RA_OF_ASC_NODE": 299.7925, "ARG_OF_PERICENTER": 31.7639, "MEAN_ANOMALY": 328.4168, "EPHEMERIS_TYPE": 0, "CLASSIFICATION_TYPE": "U", "NORAD_CAT_ID": 34488, "ELEMENT_SET_NO": 999, "REV_AT_EPOCH": 89425, "BSTAR": 0.0047265, "MEAN_MOTION_DOT": 0.0015116, "MEAN_MOTION_DDOT": 0}, "tle": {"line1": "1 34488U 97051GD  25358.86944705  .00151160  00000+0  47265-2 0  9994", "line2": "2 34488  86.3252 299.7925 0009278  31.7639 328.4168 15.32501741894252"}}, "geometry": {"type": "Point", "coordinates": [117.512181251678, 28.192566142413597]}}, {"type": "Feature", "properties": {"norad_id": 34492, "name": "IRIDIUM 33 DEB", "group": "iridium-33-debris", "lat": 45.261224358239204, "lon": 145.90782544031413, "alt_km": 736.2987673915613, "timestamp": "2025-12-25T11:37:44.824246+00:00", "meta": {"OBJECT_NAME": "IRIDIUM 33 DEB", "OBJECT_ID": "1997-051GH", "EPOCH": "2025-12-24T21:39:21.521088", "MEAN_MOTION": 14.25932668, "ECCENTRICITY": 0.0188786, "INCLINATION": 86.473, "RA_OF_ASC_NODE": 329.7114, "ARG_OF_PERICENTER": 198.6425, "MEAN_ANOMALY": 190.963, "EPHEMERIS_TYPE": 0, "CLASSIFICATION_TYPE": "U", "NORAD_CAT_ID": 34492, "ELEMENT_SET_NO": 999, "REV_AT_EPOCH": 85232, "BSTAR": 0.0029502, "MEAN_MOTION_DOT": 8.501e-05, "MEAN_MOTION_DDOT": 0}, "tle": {"line1": "1 34492U 97051GH  25358.90233242  .00008501  00000+0  29502-2 0  9995", "line2": "2 34492  86.4730 329.7114 0188786 198.6425 190.9630 14.25932668852326"}}, "geometry": {"type": "Point", "coordinates": [145.90782544031413, 45.261224358239204]}}, {"type": "Feature", "properties": {"norad_id": 34497, "name": "IRIDIUM 33 DEB", "group": "iridium-33-debris", "lat": 86.27447577411354, "lon": 137.22937779787017, "alt_km": 842.0735111210779, "timestamp": "2025-12-25T11:37:44.824257+00:00", "meta": {"OBJECT_NAME": "IRIDIUM 33 DEB", "OBJECT_ID": "1997-051GN", "EPOCH": "2025-12-22T21:33:03.136608", "MEAN_MOTION": 14.27482363, "ECCENTRICITY": 0.00780484, "INCLINATION": 86.2769, "RA_OF_ASC_NODE": 48.0617, "ARG_OF_PERICENTER": 306.2683, "MEAN_ANOMALY": 179.2919, "EPHEMERIS_TYPE": 0, "CLASSIFICATION_TYPE": "U", "NORAD_CAT_ID": 34497, "ELEMENT_SET_NO": 999, "REV_AT_EPOCH": 87028, "BSTAR": 0.00056228088, "MEAN_MOTION_DOT": 1.443e-05, "MEAN_MOTION_DDOT": 0}, "tle": {"line1": "1 34497U 97051GN  25356.89795297  .00001443  00000+0  56228-3 0  9993", "line2": "2 34497  86.2769  48.0617 0078048 306.2683 179.2919 14.27482363870281"}}, "geometry": {"type": "Point", "coordinates": [137.22937779787017, 86.27447577411354]}}, {"type": "Feature", "properties": {"norad_id": 34508, "name": "IRIDIUM 33 DEB", "group": "iridium-33-debris", "lat": 30.76454591170918, "lon": 99.40577906842391, "alt_km": 770.7051300079775, "timestamp": "2025-12-25T11:37:44.824267+00:00", "meta": {"OBJECT_NAME": "IRIDIUM 33 DEB", "OBJECT_ID": "1997-051GZ", "EPOCH": "2025-12-24T17:07:17.089536", "MEAN_MOTION": 14.3851431, "ECCENTRICITY": 0.00666407, "INCLINATION": 86.3702, "RA_OF_ASC_NODE": 97.5672, "ARG_OF_PERICENTER": 134.5991, "MEAN_ANOMALY": 226.0672, "EPHEMERIS_TYPE": 0, "CLASSIFICATION_TYPE": "U", "NORAD_CAT_ID": 34508, "ELEMENT_SET_NO": 999, "REV_AT_EPOCH": 87481, "BSTAR": 0.0012177441, "MEAN_MOTION_DOT": 3.837e-05, "MEAN_MOTION_DDOT": 0}, "tle": {"line1": "1 34508U 97051GZ  25358.71339224  .00003837  00000+0  12177-2 0  9996", "line2": "2 34508  86.3702  97.5672 0066640 134.5991 226.0672 14.38514310874811"}}, "geometry": {"type": "Point", "coordinates": [99.40577906842391, 30.76454591170918]}}, {"type": "Feature", "properties": {"norad_id": 34521, "name": "IRIDIUM 33 DEB", "group": "iridium-33-debris", "lat": -85.7566512406321, "lon": -33.66650145194667, "alt_km": 690.1068032202111, "timestamp": "2025-12-25T11:37:44.824277+00:00", "meta": {"OBJECT_NAME": "IRIDIUM 33 DEB", "OBJECT_ID": "1997-051HN", "EPOCH": "2025-12-24T19:37:11.782272", "MEAN_MOTION": 14.63462765, "ECCENTRICITY": 0.00031171, "INCLINATION": 86.3786, "RA_OF_ASC_NODE": 25.2294, "ARG_OF_PERICENTER": 167.2726, "MEAN_ANOMALY": 192.8565, "EPHEMERIS_TYPE": 0, "CLASSIFICATION_TYPE": "U", "NORAD_CAT_ID": 34521, "ELEMENT_SET_NO": 999, "REV_AT_EPOCH": 88649, "BSTAR": 0.00083071408, "MEAN_MOTION_DOT": 4.322e-05, "MEAN_MOTION_DDOT": 0}, "tle": {"line1": "1 34521U 97051HN  25358.81749748  .00004322  00000+0  83071-3 0  9990", "line2": "2 34521  86.3786  25.2294 0003117 167.2726 192.8565 14.63462765886497"}}, "geometry": {"type": "Point", "coordinates": [-33.66650145194667, -85.7566512406321]}}, {"type": "Feature", "properties": {"norad_id": 34525, "name": "IRIDIUM 33 DEB", "group": "iridium-33-debris", "lat": -52.10376757136562, "lon": -133.92089698066147, "alt_km": 760.195591073214, "timestamp": "2025-12-25T11:37:44.824287+00:00", "meta": {"OBJECT_NAME": "IRIDIUM 33 DEB", "OBJECT_ID": "1997-051HS", "EPOCH": "2025-12-25T02:30:42.897024", "MEAN_MOTION": 14.42933846, "ECCENTRICITY": 0.0006236, "INCLINATION": 86.3717, "RA_OF_ASC_NODE": 41.5654, "ARG_OF_PERICENTER": 66.5696, "MEAN_ANOMALY": 353.5151, "EPHEMERIS_TYPE": 0, "CLASSIFICATION_TYPE": "U", "NORAD_CAT_ID": 34525, "ELEMENT_SET_NO": 999, "REV_AT_EPOCH": 88266, "BSTAR": 0.00033936, "MEAN_MOTION_DOT": 1.154e-05, "MEAN_MOTION_DDOT": 0}, "tle": {"line1": "1 34525U 97051HS  25359.10466316  .00001154  00000+0  33936-3 0  9999", "line2": "2 34525  86.3717  41.5654 0006236  66.5696 353.5151 14.42933846882660"}}, "geometry": {"type": "Point", "coordinates": [-133.92089698066147, -52.10376757136562]}}, {"type": "Feature", "properties": {"norad_id": 34529, "name": "IRIDIUM 33 DEB", "group": "iridium-33-debris", "lat": 21.38713903909368, "lon": 31.405402265170814, "alt_km": 758.4990517066717, "timestamp": "2025-12-25T11:37:44.824297+00:00", "meta": {"OBJECT_NAME": "IRIDIUM 33 DEB", "OBJECT_ID": "1997-051HW", "EPOCH": "2025-12-25T03:11:41.416800", "MEAN_MOTION": 14.40625756, "ECCENTRICITY": 0.0006175, "INCLINATION": 86.3629, "RA_OF_ASC_NODE": 30.1278, "ARG_OF_PERICENTER": 141.8803, "MEAN_ANOMALY": 218.2834, "EPHEMERIS_TYPE": 0, "CLASSIFICATION_TYPE": "U", "NORAD_CAT_ID": 34529, "ELEMENT_SET_NO": 999, "REV_AT_EPOCH": 88320, "BSTAR": 0.00012534, "MEAN_MOTION_DOT": 4.2e-06, "MEAN_MOTION_DDOT": 0}, "tle": {"line1": "1 34529U 97051HW  25359.13311825  .00000420  00000+0  12534-3 0  9996", "line2": "2 34529  86.3629  30.1278 0006175 141.8803 218.2834 14.40625756883203"}}, "geometry": {"type": "Point", "coordinates": [31.405402265170814, 21.38713903909368]}}]}